[Satellite]
VERSION=1.1
NAME=FASAT B
NICKNAME=FASAT B
TLE1=1 25395U 98043B   11060.01018683 -.00000015  00000-0  10938-4 0  9771
TLE2=2 25395  98.3000  67.7562 0002685 162.8773 197.2506 14.24422604656965
